65541,STARLINK-35087,2025-12-13T18:34:35.181120,2025-12-14T13:04:14.456627,97.605,55.1183,0.0001213,98.5689,261.5675,15.05643204,37024-3,1620,1 65541U 25200X   25347.77401830  .00005284  00000+0  37024-3 0  9998,2 65541  97.6050  55.1183 0001213  98.5689 261.5675 15.05643204 16206
65542,STARLINK-35100,2025-12-13T22:29:50.401824,2025-12-14T13:04:14.456627,97.6056,55.2071,0.0001012,94.1211,266.0131,15.05648635,53474-3,1622,1 65542U 25200Y   25347.93738891  .00007663  00000+0  53474-3 0  9997,2 65542  97.6056  55.2071 0001012  94.1211 266.0131 15.05648635 16222
65543,STARLINK-35105,2025-12-13T18:18:38.467008,2025-12-14T13:04:14.456627,97.6039,55.1334,0.0001147,80.1593,279.9764,15.05646316,60154-3,1620,1 65543U 25200Z   25347.76294522  .00008629  00000+0  60154-3 0  9993,2 65543  97.6039  55.1334 0001147  80.1593 279.9764 15.05646316 16209
65592,STARLINK-35267,2025-12-13T21:52:24.636000,2025-12-14T13:04:14.456627,97.6056,53.6282,0.0001264,70.2905,289.8477,15.39342852,11853-2,1531,1 65592U 25207A   25347.91139625  .00046424  00000+0  11853-2 0  9999,2 65592  97.6056  53.6282 0001264  70.2905 289.8477 15.39342852 15311
65593,STARLINK-35269,2025-12-13T22:37:08.374656,2025-12-14T13:04:14.456627,97.6066,53.7435,0.0001021,66.0788,294.0563,15.39335692,95300-3,1532,1 65593U 25207B   25347.94245804  .00037254  00000+0  95300-3 0  9991,2 65593  97.6066  53.7435 0001021  66.0788 294.0563 15.39335692 15326
65594,STARLINK-35191,2025-12-13T18:20:14.075520,2025-12-14T13:04:14.456627,97.6048,53.5178,0.0001534,83.3659,276.776,15.3934616,13846-2,1513,1 65594U 25207C   25347.76405180  .00054305  00000+0  13846-2 0  9997,2 65594  97.6048  53.5178 0001534  83.3659 276.7760 15.39346160 15134
65595,STARLINK-35261,2025-12-13T22:14:15.604800,2025-12-14T13:04:14.456627,97.6059,53.766,0.0001302,92.4582,267.6812,15.39335051,95124-3,1533,1 65595U 25207D   25347.92656950  .00037184  00000+0  95124-3 0  9995,2 65595  97.6059  53.7660 0001302  92.4582 267.6812 15.39335051 15330
65596,STARLINK-35253,2025-12-13T18:32:11.557536,2025-12-14T13:04:14.456627,97.6056,53.5076,9.36e-05,97.8406,262.2945,15.39336798,68959-3,1509,1 65596U 25207E   25347.77235599  .00026897  00000+0  68959-3 0  9996,2 65596  97.6056  53.5076 0000936  97.8406 262.2945 15.39336798 15093
65597,STARLINK-35263,2025-12-13T18:08:16.622880,2025-12-14T13:04:14.456627,97.6053,53.529,0.0001237,87.7915,272.3471,15.39333586,97616-3,1530,1 65597U 25207F   25347.75574795  .00038163  00000+0  97616-3 0  9990,2 65597  97.6053  53.5290 0001237  87.7915 272.3471 15.39333586 15309
65598,STARLINK-35248,2025-12-13T22:25:41.785824,2025-12-14T13:04:14.456627,97.6071,53.7554,8.31e-05,59.6997,300.433,15.39346325,12984-2,1533,1 65598U 25207G   25347.93451141  .00050894  00000+0  12984-2 0  9999,2 65598  97.6071  53.7554 0000831  59.6997 300.4330 15.39346325 15337
65599,STARLINK-35245,2025-12-13T17:22:31.334592,2025-12-14T13:04:14.456627,97.602,53.5724,0.0002004,93.7038,266.4437,15.39385231,12105-2,1530,1 65599U 25207H   25347.72397378  .00047485  00000+0  12105-2 0  9995,2 65599  97.6020  53.5724 0002004  93.7038 266.4437 15.39385231 15303
65600,STARLINK-35229,2025-12-13T21:45:38.920608,2025-12-14T13:04:14.456627,97.6056,53.6355,9.65e-05,97.9586,262.1769,15.39342127,17398-2,1532,1 65600U 25207J   25347.90670047  .00068373  00000+0  17398-2 0  9993,2 65600  97.6056  53.6355 0000965  97.9586 262.1769 15.39342127 15324
65601,STARLINK-35234,2025-12-13T18:26:28.496832,2025-12-14T13:04:14.456627,97.6047,53.5122,0.0001325,68.7316,291.4071,15.39338593,11702-2,1530,1 65601U 25207K   25347.76838538  .00045819  00000+0  11702-2 0  9992,2 65601  97.6047  53.5122 0001325  68.7316 291.4071 15.39338593 15305
65602,STARLINK-35255,2025-12-13T22:43:23.763648,2025-12-14T13:04:14.456627,97.6054,53.7371,0.0001309,84.9884,275.1511,15.39301804,-13427-3,1533,1 65602U 25207L   25347.94680282 -.00005313  00000+0 -13427-3 0  9998,2 65602  97.6054  53.7371 0001309  84.9884 275.1511 15.39301804 15330
65603,STARLINK-35250,2025-12-13T17:39:42.316416,2025-12-14T13:04:14.456627,97.6055,53.5572,0.0001512,93.847,266.2948,15.39340122,12058-2,1530,1 65603U 25207M   25347.73590644  .00047228  00000+0  12058-2 0  9995,2 65603  97.6055  53.5572 0001512  93.8470 266.2948 15.39340122 15307
65604,STARLINK-35251,2025-12-13T18:13:59.660256,2025-12-14T13:04:14.456627,97.6057,53.5233,0.0001481,91.1127,269.0288,15.39343834,15887-2,1530,1 65604U 25207N   25347.75971829  .00062382  00000+0  15887-2 0  9997,2 65604  97.6057  53.5233 0001481  91.1127 269.0288 15.39343834 15300
65605,STARLINK-35171,2025-12-13T22:32:27.656736,2025-12-14T13:04:14.456627,97.6064,53.7474,0.0001118,82.4599,277.6773,15.39328789,10355-2,1517,1 65605U 25207P   25347.93920899  .00040495  00000+0  10355-2 0  9995,2 65605  97.6064  53.7474 0001118  82.4599 277.6773 15.39328789 15172
65606,STARLINK-35195,2025-12-13T17:17:19.277664,2025-12-14T13:04:14.456627,97.6051,53.5792,0.0001947,77.1583,282.988,15.39352307,17046-2,1530,1 65606U 25207Q   25347.72036201  .00067000  00000+0  17046-2 0  9993,2 65606  97.6051  53.5792 0001947  77.1583 282.9880 15.39352307 15300
65607,STARLINK-35156,2025-12-13T22:06:58.637664,2025-12-14T13:04:14.456627,97.6067,53.7736,0.0001052,75.1492,284.987,15.39343391,13907-2,1533,1 65607U 25207R   25347.92151201  .00054541  00000+0  13907-2 0  9992,2 65607  97.6067  53.7736 0001052  75.1492 284.9870 15.39343391 15339
65608,STARLINK-35185,2025-12-13T22:40:15.628512,2025-12-14T13:04:14.456627,97.6065,53.7404,0.000108,72.858,287.2783,15.3933936,10689-2,1533,1 65608U 25207S   25347.94462533  .00041827  00000+0  10689-2 0  9995,2 65608  97.6065  53.7404 0001080  72.8580 287.2783 15.39339360 15333
65609,STARLINK-35053,2025-12-13T22:17:22.979616,2025-12-14T13:04:14.456627,97.6062,53.7625,0.0001403,91.3069,268.8337,15.39327703,98004-3,1517,1 65609U 25207T   25347.92873819  .00038309  00000+0  98004-3 0  9996,2 65609  97.6062  53.7625 0001403  91.3069 268.8337 15.39327703 15173
65610,STARLINK-35178,2025-12-13T18:17:07.079136,2025-12-14T13:04:14.456627,97.6041,53.5211,0.0001631,86.701,273.4421,15.39346141,14898-2,1530,1 65610U 25207U   25347.76188749  .00058469  00000+0  14898-2 0  9998,2 65610  97.6041  53.5211 0001631  86.7010 273.4421 15.39346141 15306
65611,STARLINK-35186,2025-12-13T17:08:28.693536,2025-12-14T13:04:14.456627,97.605,53.5878,0.0001181,82.387,277.7509,15.39292304,15948-2,1530,1 65611U 25207V   25347.71422099  .00062519  00000+0  15948-2 0  9991,2 65611  97.6050  53.5878 0001181  82.3870 277.7509 15.39292304 15307
65612,STARLINK-35154,2025-12-13T22:10:06.810816,2025-12-14T13:04:14.456627,97.606,53.7695,0.000173,86.942,273.2023,15.39340643,10450-2,1517,1 65612U 25207W   25347.92368994  .00040886  00000+0  10450-2 0  9994,2 65612  97.6060  53.7695 0001730  86.9420 273.2023 15.39340643 15176
65613,STARLINK-35162,2025-12-13T17:49:02.406144,2025-12-14T13:04:14.456627,97.6056,53.5482,0.0001813,66.474,293.6695,15.39329758,16941-2,1530,1 65613U 25207X   25347.74238896  .00066536  00000+0  16941-2 0  9993,2 65613  97.6056  53.5482 0001813  66.4740 293.6695 15.39329758 15304
65614,STARLINK-35206,2025-12-13T18:23:52.632096,2025-12-14T13:04:14.456627,97.605,53.5153,0.0001516,86.142,273.9998,15.39338516,16850-2,1519,1 65614U 25207Y   25347.76658139  .00066193  00000+0  16850-2 0  9990,2 65614  97.6050  53.5153 0001516  86.1420 273.9998 15.39338516 15194
65615,STARLINK-35174,2025-12-13T21:42:32.046048,2025-12-14T13:04:14.456627,97.6056,53.639,0.0001575,94.8005,265.342,15.39337598,14666-2,1532,1 65615U 25207Z   25347.90453757  .00057535  00000+0  14666-2 0  9999,2 65615  97.6056  53.6390 0001575  94.8005 265.3420 15.39337598 15324
65622,STARLINK-35247,2025-12-13T16:45:24.109344,2025-12-14T13:04:14.456627,53.1593,346.6344,0.0001679,83.4542,276.665,15.30224967,81365-3,1456,1 65622U 25210A   25347.69819571  .00023835  00000+0  81365-3 0  9994,2 65622  53.1593 346.6344 0001679  83.4542 276.6650 15.30224967 14565
65623,STARLINK-35239,2025-12-13T23:42:29.312064,2025-12-14T13:04:14.456627,53.1603,344.8837,0.0002919,71.1362,288.9955,15.30208659,60948-3,1461,1 65623U 25210B   25347.98783926  .00017740  00000+0  60948-3 0  9993,2 65623  53.1603 344.8837 0002919  71.1362 288.9955 15.30208659 14617
65624,STARLINK-35151,2025-12-13T23:10:44.830560,2025-12-14T13:04:14.456627,53.1586,345.4542,0.0001377,82.5919,277.5238,15.30242965,11189-2,1452,1 65624U 25210C   25347.96579665  .00032971  00000+0  11189-2 0  9990,2 65624  53.1586 345.4542 0001377  82.5919 277.5238 15.30242965 14525
65625,STARLINK-35153,2025-12-13T07:54:22.814208,2025-12-14T13:04:14.456627,53.161,347.8844,0.0001648,68.8907,291.227,15.30216304,17204-2,1443,1 65625U 25210D   25347.32943072  .00050970  00000+0  17204-2 0  9991,2 65625  53.1610 347.8844 0001648  68.8907 291.2270 15.30216304 14437
65626,STARLINK-35225,2025-12-13T06:52:12.777600,2025-12-14T13:04:14.456627,53.1614,348.325,0.0001378,70.8936,289.2214,15.30227178,14738-2,1450,1 65626U 25210E   25347.28625900  .00043583  00000+0  14738-2 0  9995,2 65626  53.1614 348.3250 0001378  70.8936 289.2214 15.30227178 14508
65627,STARLINK-35217,2025-12-13T17:05:09.726432,2025-12-14T13:04:14.456627,53.1607,346.7149,0.0002487,87.1138,273.0147,15.30216424,71228-3,1456,1 65627U 25210F   25347.71191813  .00020807  00000+0  71228-3 0  9997,2 65627  53.1607 346.7149 0002487  87.1138 273.0147 15.30216424 14561
65628,STARLINK-35128,2025-12-13T07:05:53.469600,2025-12-14T13:04:14.456627,53.1591,348.3867,0.0001407,72.7137,287.4018,15.30230924,15551-2,1450,1 65628U 25210G   25347.29575775  .00046027  00000+0  15551-2 0  9992,2 65628  53.1591 348.3867 0001407  72.7137 287.4018 15.30230924 14500
65629,STARLINK-35135,2025-12-13T06:58:18.858720,2025-12-14T13:04:14.456627,53.1601,348.3519,0.0001809,74.4238,285.6962,15.30149052,10321-2,1450,1 65629U 25210H   25347.29049605  .00030285  00000+0  10321-2 0  9990,2 65629  53.1601 348.3519 0001809  74.4238 285.6962 15.30149052 14503
